{
  "type": "FeatureCollection",
  "features": [
    {
      "type": "Feature",
      "properties": {
        "norad_id": 33637,
        "name": "FENGYUN 1C DEB",
        "group": "fengyun-1c-debris",
        "lat": 44.68405280995113,
        "lon": -143.65179664622846,
        "alt_km": 713.282227326049,
        "timestamp": "2025-12-08T19:31:49.094957+00:00",
        "meta_object_name": "FENGYUN 1C DEB",
        "meta_object_id": "1999-025DDW",
        "meta_epoch": "2025-12-02T20:49:29.953920",
        "meta_mean_motion": 14.36621291,
        "meta_eccentricity": 0.00830408,
        "meta_inclination": 98.4948,
        "meta_ra_of_asc_node": 21.982,
        "meta_arg_of_pericenter": 180.571,
        "meta_mean_anomaly": 179.5395,
        "meta_ephemeris_type": 0,
        "meta_classification_type": "U",
        "meta_norad_cat_id": 33637,
        "meta_element_set_no": 999,
        "meta_rev_at_epoch": 64696,
        "meta_bstar": 0.0016160218,
        "meta_mean_motion_dot": 4.904e-05,
        "meta_mean_motion_ddot": 0,
        "tle_line1": "1 33637U 99025DDW 25336.86770780  .00004904  00000+0  16160-2 0  9991",
        "tle_line2": "2 33637  98.4948  21.9820 0083040 180.5710 179.5395 14.36621291646960"
      },
      "geometry": {
        "type": "Point",
        "coordinates": [
          -143.65179664622846,
          44.68405280995113
        ]
      }
    },
    {
      "type": "Feature",
      "properties": {
        "norad_id": 33638,
        "name": "FENGYUN 1C DEB",
        "group": "fengyun-1c-debris",
        "lat": 42.20419611688135,
        "lon": 61.73500575877423,
        "alt_km": 1160.0802931117396,
        "timestamp": "2025-12-08T19:31:49.094966+00:00",
        "meta_object_name": "FENGYUN 1C DEB",
        "meta_object_id": "1999-025DDX",
        "meta_epoch": "2025-12-06T22:59:54.556512",
        "meta_mean_motion": 13.6928665,
        "meta_eccentricity": 0.02653124,
        "meta_inclination": 98.4647,
        "meta_ra_of_asc_node": 232.3409,
        "meta_arg_of_pericenter": 288.5007,
        "meta_mean_anomaly": 68.7482,
        "meta_ephemeris_type": 0,
        "meta_classification_type": "U",
        "meta_norad_cat_id": 33638,
        "meta_element_set_no": 999,
        "meta_rev_at_epoch": 60836,
        "meta_bstar": 0.0023450571,
        "meta_mean_motion_dot": 2.567e-05,
        "meta_mean_motion_ddot": 0,
        "tle_line1": "1 33638U 99025DDX 25340.95827033  .00002567  00000+0  23451-2 0  9995",
        "tle_line2": "2 33638  98.4647 232.3409 0265312 288.5007  68.7482 13.69286650608369"
      },
      "geometry": {
        "type": "Point",
        "coordinates": [
          61.73500575877423,
          42.20419611688135
        ]
      }
    },
    {
      "type": "Feature",
      "properties": {
        "norad_id": 33639,
        "name": "FENGYUN 1C DEB",
        "group": "fengyun-1c-debris",
        "lat": 23.422791225152466,
        "lon": -102.46866978022412,
        "alt_km": 785.319948571554,
        "timestamp": "2025-12-08T19:31:49.094976+00:00",
        "meta_object_name": "FENGYUN 1C DEB",
        "meta_object_id": "1999-025DDY",
        "meta_epoch": "2025-12-03T23:45:48.189312",
        "meta_mean_motion": 14.40248408,
        "meta_eccentricity": 0.00493059,
        "meta_inclination": 98.7136,
        "meta_ra_of_asc_node": 68.813,
        "meta_arg_of_pericenter": 315.1865,
        "meta_mean_anomaly": 44.5345,
        "meta_ephemeris_type": 0,
        "meta_classification_type": "U",
        "meta_norad_cat_id": 33639,
        "meta_element_set_no": 999,
        "meta_rev_at_epoch": 60456,
        "meta_bstar": 0.0043899516,
        "meta_mean_motion_dot": 0.00014079,
        "meta_mean_motion_ddot": 0,
        "tle_line1": "1 33639U 99025DDY 25337.99014108  .00014079  00000+0  43900-2 0  9999",
        "tle_line2": "2 33639  98.7136  68.8130 0049305 315.1865  44.5345 14.40248408604567"
      },
      "geometry": {
        "type": "Point",
        "coordinates": [
          -102.46866978022412,
          23.422791225152466
        ]
      }
    },
    {
      "type": "Feature",
      "properties": {
        "norad_id": 33640,
        "name": "FENGYUN 1C DEB",
        "group": "fengyun-1c-debris",
        "lat": -80.86206163469511,
        "lon": 30.035409247679244,
        "alt_km": 752.951515929768,
        "timestamp": "2025-12-08T19:31:49.094985+00:00",
        "meta_object_name": "FENGYUN 1C DEB",
        "meta_object_id": "1999-025DDZ",
        "meta_epoch": "2025-12-07T19:02:56.918112",
        "meta_mean_motion": 14.458694,
        "meta_eccentricity": 0.00904679,
        "meta_inclination": 98.8406,
        "meta_ra_of_asc_node": 284.3391,
        "meta_arg_of_pericenter": 174.4583,
        "meta_mean_anomaly": 185.763,
        "meta_ephemeris_type": 0,
        "meta_classification_type": "U",
        "meta_norad_cat_id": 33640,
        "meta_element_set_no": 999,
        "meta_rev_at_epoch": 92271,
        "meta_bstar": 0.00085213272,
        "meta_mean_motion_dot": 3.134e-05,
        "meta_mean_motion_ddot": 0,
        "tle_line1": "1 33640U 99025DDZ 25341.79371433  .00003134  00000+0  85213-3 0  9995",
        "tle_line2": "2 33640  98.8406 284.3391 0090467 174.4583 185.7630 14.45869400922713"
      },
      "geometry": {
        "type": "Point",
        "coordinates": [
          30.035409247679244,
          -80.86206163469511
        ]
      }
    },
    {
      "type": "Feature",
      "properties": {
        "norad_id": 33648,
        "name": "FENGYUN 1C DEB",
        "group": "fengyun-1c-debris",
        "lat": -44.37010544794688,
        "lon": -9.754497325926577,
        "alt_km": 891.4704110188968,
        "timestamp": "2025-12-08T19:31:49.094994+00:00",
        "meta_object_name": "FENGYUN 1C DEB",
        "meta_object_id": "1999-025DEH",
        "meta_epoch": "2025-12-07T06:19:28.985088",
        "meta_mean_motion": 14.11771624,
        "meta_eccentricity": 0.00686156,
        "meta_inclination": 98.7191,
        "meta_ra_of_asc_node": 340.1048,
        "meta_arg_of_pericenter": 189.7448,
        "meta_mean_anomaly": 170.2398,
        "meta_ephemeris_type": 0,
        "meta_classification_type": "U",
        "meta_norad_cat_id": 33648,
        "meta_element_set_no": 999,
        "meta_rev_at_epoch": 64299,
        "meta_bstar": 0.00018339331,
        "meta_mean_motion_dot": 2.99e-06,
        "meta_mean_motion_ddot": 0,
        "tle_line1": "1 33648U 99025DEH 25341.26352992  .00000299  00000+0  18339-3 0  9998",
        "tle_line2": "2 33648  98.7191 340.1048 0068615 189.7448 170.2398 14.11771624642992"
      },
      "geometry": {
        "type": "Point",
        "coordinates": [
          -9.754497325926577,
          -44.37010544794688
        ]
      }
    },
    {
      "type": "Feature",
      "properties": {
        "norad_id": 33650,
        "name": "FENGYUN 1C DEB",
        "group": "fengyun-1c-debris",
        "lat": 51.50669915288352,
        "lon": 136.54171200367222,
        "alt_km": 838.6651980598263,
        "timestamp": "2025-12-08T19:31:49.095003+00:00",
        "meta_object_name": "FENGYUN 1C DEB",
        "meta_object_id": "1999-025DEK",
        "meta_epoch": "2025-12-08T05:27:12.984768",
        "meta_mean_motion": 13.89181804,
        "meta_eccentricity": 0.01501243,
        "meta_inclination": 98.9884,
        "meta_ra_of_asc_node": 147.4557,
        "meta_arg_of_pericenter": 91.2923,
        "meta_mean_anomaly": 270.5438,
        "meta_ephemeris_type": 0,
        "meta_classification_type": "U",
        "meta_norad_cat_id": 33650,
        "meta_element_set_no": 999,
        "meta_rev_at_epoch": 68746,
        "meta_bstar": 0.0012694502,
        "meta_mean_motion_dot": 1.648e-05,
        "meta_mean_motion_ddot": 0,
        "tle_line1": "1 33650U 99025DEK 25342.22723362  .00001648  00000+0  12695-2 0  9998",
        "tle_line2": "2 33650  98.9884 147.4557 0150124  91.2923 270.5438 13.89181804687460"
      },
      "geometry": {
        "type": "Point",
        "coordinates": [
          136.54171200367222,
          51.50669915288352
        ]
      }
    },
    {
      "type": "Feature",
      "properties": {
        "norad_id": 33651,
        "name": "FENGYUN 1C DEB",
        "group": "fengyun-1c-debris",
        "lat": -61.86596310536396,
        "lon": -168.0749436624499,
        "alt_km": 916.2812595298501,
        "timestamp": "2025-12-08T19:31:49.095012+00:00",
        "meta_object_name": "FENGYUN 1C DEB",
        "meta_object_id": "1999-025DEL",
        "meta_epoch": "2025-12-04T09:34:25.167360",
        "meta_mean_motion": 14.2034714,
        "meta_eccentricity": 0.0118053,
        "meta_inclination": 98.6575,
        "meta_ra_of_asc_node": 24.1579,
        "meta_arg_of_pericenter": 77.9387,
        "meta_mean_anomaly": 283.4991,
        "meta_ephemeris_type": 0,
        "meta_classification_type": "U",
        "meta_norad_cat_id": 33651,
        "meta_element_set_no": 999,
        "meta_rev_at_epoch": 64153,
        "meta_bstar": 0.00028899,
        "meta_mean_motion_dot": 6.21e-06,
        "meta_mean_motion_ddot": 0,
        "tle_line1": "1 33651U 99025DEL 25338.39890240  .00000621  00000+0  28899-3 0  9996",
        "tle_line2": "2 33651  98.6575  24.1579 0118053  77.9387 283.4991 14.20347140641538"
      },
      "geometry": {
        "type": "Point",
        "coordinates": [
          -168.0749436624499,
          -61.86596310536396
        ]
      }
    }
  ]
}